{"type": "FeatureCollection", "features": [ {"type": "Feature", "properties": {"norad_id": 29906, "name": "FENGYUN 1C DEB", "group": "fengyun-1c-debris", "lat": 48.56898561222968, "lon": -69.71892574929632, "alt_km": 696.4283958520609, "timestamp": "2025-12-22T14:45:57.674658+00:00", "meta": {"OBJECT_NAME": "FENGYUN 1C DEB", "OBJECT_ID": "1999-025HC", "EPOCH": "2025-12-22T05:53:08.991744", "MEAN_MOTION": 14.49787259, "ECCENTRICITY": 0.00364793, "INCLINATION": 98.7061, "RA_OF_ASC_NODE": 99.9009, "ARG_OF_PERICENTER": 121.3481, "MEAN_ANOMALY": 239.1291, "EPHEMERIS_TYPE": 0, "CLASSIFICATION_TYPE": "U", "NORAD_CAT_ID": 29906, "ELEMENT_SET_NO": 999, "REV_AT_EPOCH": 98295, "BSTAR": 0.0023277083, "MEAN_MOTION_DOT": 9.013e-05, "MEAN_MOTION_DDOT": 0}, "tle": {"line1": "1 29906U 99025HC  25356.24524296  .00009013  00000+0  23277-2 0  9991", "line2": "2 29906  98.7061  99.9009 0036479 121.3481 239.1291 14.49787259982950"}}, "geometry": {"type": "Point", "coordinates": [-69.71892574929632, 48.56898561222968]}}, {"type": "Feature", "properties": {"norad_id": 29907, "name": "FENGYUN 1C DEB", "group": "fengyun-1c-debris", "lat": 5.707587749342946, "lon": 62.523059857471196, "alt_km": 904.9942794307726, "timestamp": "2025-12-22T14:45:57.674668+00:00", "meta": {"OBJECT_NAME": "FENGYUN 1C DEB", "OBJECT_ID": "1999-025HD", "EPOCH": "2025-12-22T03:07:17.512320", "MEAN_MOTION": 14.11686795, "ECCENTRICITY": 0.00846692, "INCLINATION": 99.1109, "RA_OF_ASC_NODE": 62.9495, "ARG_OF_PERICENTER": 223.3824, "MEAN_ANOMALY": 197.5418, "EPHEMERIS_TYPE": 0, "CLASSIFICATION_TYPE": "U", "NORAD_CAT_ID": 29907, "ELEMENT_SET_NO": 999, "REV_AT_EPOCH": 96731, "BSTAR": 0.0017677047, "MEAN_MOTION_DOT": 3.282e-05, "MEAN_MOTION_DDOT": 0}, "tle": {"line1": "1 29907U 99025HD  25356.13006380  .00003282  00000+0  17677-2 0  9998", "line2": "2 29907  99.1109  62.9495 0084669 223.3824 197.5418 14.11686795967319"}}, "geometry": {"type": "Point", "coordinates": [62.523059857471196, 5.707587749342946]}}, {"type": "Feature", "properties": {"norad_id": 29909, "name": "FENGYUN 1C DEB", "group": "fengyun-1c-debris", "lat": 40.67902916321883, "lon": 93.24109708683068, "alt_km": 690.5780286676554, "timestamp": "2025-12-22T14:45:57.674679+00:00", "meta": {"OBJECT_NAME": "FENGYUN 1C DEB", "OBJECT_ID": "1999-025HF", "EPOCH": "2025-12-22T06:25:45.111936", "MEAN_MOTION": 14.55268266, "ECCENTRICITY": 0.00380828, "INCLINATION": 98.6348, "RA_OF_ASC_NODE": 100.3869, "ARG_OF_PERICENTER": 345.1231, "MEAN_ANOMALY": 37.052, "EPHEMERIS_TYPE": 0, "CLASSIFICATION_TYPE": "U", "NORAD_CAT_ID": 29909, "ELEMENT_SET_NO": 999, "REV_AT_EPOCH": 98544, "BSTAR": 0.002040365, "MEAN_MOTION_DOT": 8.883e-05, "MEAN_MOTION_DDOT": 0}, "tle": {"line1": "1 29909U 99025HF  25356.26788324  .00008883  00000+0  20404-2 0  9993", "line2": "2 29909  98.6348 100.3869 0038082 345.1231  37.0520 14.55268266985448"}}, "geometry": {"type": "Point", "coordinates": [93.24109708683068, 40.67902916321883]}}, {"type": "Feature", "properties": {"norad_id": 29911, "name": "FENGYUN 1C DEB", "group": "fengyun-1c-debris", "lat": -23.433339491249715, "lon": 43.37102815253431, "alt_km": 851.1391648245672, "timestamp": "2025-12-22T14:45:57.674690+00:00", "meta": {"OBJECT_NAME": "FENGYUN 1C DEB", "OBJECT_ID": "1999-025HH", "EPOCH": "2025-12-22T01:28:41.589408", "MEAN_MOTION": 14.1888084, "ECCENTRICITY": 0.00274184, "INCLINATION": 98.7146, "RA_OF_ASC_NODE": 39.0151, "ARG_OF_PERICENTER": 125.1791, "MEAN_ANOMALY": 264.8984, "EPHEMERIS_TYPE": 0, "CLASSIFICATION_TYPE": "U", "NORAD_CAT_ID": 29911, "ELEMENT_SET_NO": 999, "REV_AT_EPOCH": 97563, "BSTAR": 0.00062447331, "MEAN_MOTION_DOT": 1.262e-05, "MEAN_MOTION_DDOT": 0}, "tle": {"line1": "1 29911U 99025HH  25356.06159247  .00001262  00000+0  62447-3 0  9998", "line2": "2 29911  98.7146  39.0151 0027418 125.1791 264.8984 14.18880840975639"}}, "geometry": {"type": "Point", "coordinates": [43.37102815253431, -23.433339491249715]}}, {"type": "Feature", "properties": {"norad_id": 29912, "name": "FENGYUN 1C DEB", "group": "fengyun-1c-debris", "lat": 70.2594520754271, "lon": 68.93041498098809, "alt_km": 755.8254210120122, "timestamp": "2025-12-22T14:45:57.674700+00:00", "meta": {"OBJECT_NAME": "FENGYUN 1C DEB", "OBJECT_ID": "1999-025HJ", "EPOCH": "2025-12-21T17:25:20.214624", "MEAN_MOTION": 14.43092322, "ECCENTRICITY": 0.0043212, "INCLINATION": 98.7396, "RA_OF_ASC_NODE": 93.4019, "ARG_OF_PERICENTER": 192.9904, "MEAN_ANOMALY": 302.2063, "EPHEMERIS_TYPE": 0, "CLASSIFICATION_TYPE": "U", "NORAD_CAT_ID": 29912, "ELEMENT_SET_NO": 999, "REV_AT_EPOCH": 98168, "BSTAR": 0.0016433221, "MEAN_MOTION_DOT": 5.532e-05, "MEAN_MOTION_DDOT": 0}, "tle": {"line1": "1 29912U 99025HJ  25355.72592841  .00005532  00000+0  16433-2 0  9999", "line2": "2 29912  98.7396  93.4019 0043212 192.9904 302.2063 14.43092322981687"}}, "geometry": {"type": "Point", "coordinates": [68.93041498098809, 70.2594520754271]}}, {"type": "Feature", "properties": {"norad_id": 29913, "name": "FENGYUN 1C DEB", "group": "fengyun-1c-debris", "lat": -2.97881047114895, "lon": -4.343379668749285, "alt_km": 889.5074739788724, "timestamp": "2025-12-22T14:45:57.674710+00:00", "meta": {"OBJECT_NAME": "FENGYUN 1C DEB", "OBJECT_ID": "1999-025HK", "EPOCH": "2025-12-22T06:18:46.390752", "MEAN_MOTION": 14.07393238, "ECCENTRICITY": 0.00619025, "INCLINATION": 98.7879, "RA_OF_ASC_NODE": 354.8529, "ARG_OF_PERICENTER": 244.2172, "MEAN_ANOMALY": 128.6945, "EPHEMERIS_TYPE": 0, "CLASSIFICATION_TYPE": "U", "NORAD_CAT_ID": 29913, "ELEMENT_SET_NO": 999, "REV_AT_EPOCH": 97099, "BSTAR": 0.0002249849, "MEAN_MOTION_DOT": 3.42e-06, "MEAN_MOTION_DDOT": 0}, "tle": {"line1": "1 29913U 99025HK  25356.26303693  .00000342  00000+0  22498-3 0  9998", "line2": "2 29913  98.7879 354.8529 0061902 244.2172 128.6945 14.07393238970999"}}, "geometry": {"type": "Point", "coordinates": [-4.343379668749285, -2.97881047114895]}}, {"type": "Feature", "properties": {"norad_id": 29914, "name": "FENGYUN 1C DEB", "group": "fengyun-1c-debris", "lat": -14.614970204772293, "lon": 27.23899455134327, "alt_km": 893.3498825041734, "timestamp": "2025-12-22T14:45:57.674721+00:00", "meta": {"OBJECT_NAME": "FENGYUN 1C DEB", "OBJECT_ID": "1999-025HL", "EPOCH": "2025-12-21T20:51:10.044864", "MEAN_MOTION": 14.0313266, "ECCENTRICITY": 0.0036757, "INCLINATION": 98.8426, "RA_OF_ASC_NODE": 24.1875, "ARG_OF_PERICENTER": 90.1557, "MEAN_ANOMALY": 87.463, "EPHEMERIS_TYPE": 0, "CLASSIFICATION_TYPE": "U", "NORAD_CAT_ID": 29914, "ELEMENT_SET_NO": 999, "REV_AT_EPOCH": 96914, "BSTAR": -4.4259045e-05, "MEAN_MOTION_DOT": -1.12e-06, "MEAN_MOTION_DDOT": 0}, "tle": {"line1": "1 29914U 99025HL  25355.86886626 -.00000112  00000+0 -44259-4 0  9993", "line2": "2 29914  98.8426  24.1875 0036757  90.1557  87.4630 14.03132660969149"}}, "geometry": {"type": "Point", "coordinates": [27.23899455134327, -14.614970204772293]}}, {"type": "Feature", "properties": {"norad_id": 29916, "name": "FENGYUN 1C DEB", "group": "fengyun-1c-debris", "lat": 34.39348978748152, "lon": -158.40965534022453, "alt_km": 1032.585276613133, "timestamp": "2025-12-22T14:45:57.674734+00:00", "meta": {"OBJECT_NAME": "FENGYUN 1C DEB", "OBJECT_ID": "1999-025HN", "EPOCH": "2025-12-21T18:50:52.524960", "MEAN_MOTION": 13.56994216, "ECCENTRICITY": 0.02714407, "INCLINATION": 99.1935, "RA_OF_ASC_NODE": 14.4492, "ARG_OF_PERICENTER": 235.3555, "MEAN_ANOMALY": 180.566, "EPHEMERIS_TYPE": 0, "CLASSIFICATION_TYPE": "U", "NORAD_CAT_ID": 29916, "ELEMENT_SET_NO": 999, "REV_AT_EPOCH": 93575, "BSTAR": 0.0005280617, "MEAN_MOTION_DOT": 4.34e-06, "MEAN_MOTION_DDOT": 0}, "tle": {"line1": "1 29916U 99025HN  25355.78533015  .00000434  00000+0  52806-3 0  9998", "line2": "2 29916  99.1935  14.4492 0271440 235.3555 180.5660 13.56994216935756"}}, "geometry": {"type": "Point", "coordinates": [-158.40965534022453, 34.39348978748152]}}, {"type": "Feature", "properties": {"norad_id": 29917, "name": "FENGYUN 1C DEB", "group": "fengyun-1c-debris", "lat": -7.007048482721849, "lon": -141.39547230647725, "alt_km": 1041.3284036624382, "timestamp": "2025-12-22T14:45:57.674754+00:00", "meta": {"OBJECT_NAME": "FENGYUN 1C DEB", "OBJECT_ID": "1999-025HP", "EPOCH": "2025-12-22T03:08:42.923904", "MEAN_MOTION": 13.70435368, "ECCENTRICITY": 0.02233416, "INCLINATION": 98.8765, "RA_OF_ASC_NODE": 217.0566, "ARG_OF_PERICENTER": 99.4503, "MEAN_ANOMALY": 28.5049, "EPHEMERIS_TYPE": 0, "CLASSIFICATION_TYPE": "U", "NORAD_CAT_ID": 29917, "ELEMENT_SET_NO": 999, "REV_AT_EPOCH": 94259, "BSTAR": 0.0012669671, "MEAN_MOTION_DOT": 1.299e-05, "MEAN_MOTION_DDOT": 0}, "tle": {"line1": "1 29917U 99025HP  25356.13105236  .00001299  00000+0  12670-2 0  9993", "line2": "2 29917  98.8765 217.0566 0223341  99.4503  28.5049 13.70435368942592"}}, "geometry": {"type": "Point", "coordinates": [-141.39547230647725, -7.007048482721849]}}, {"type": "Feature", "properties": {"norad_id": 29918, "name": "FENGYUN 1C DEB", "group": "fengyun-1c-debris", "lat": -80.92693767669299, "lon": -178.1843371256627, "alt_km": 777.6571942536566, "timestamp": "2025-12-22T14:45:57.674773+00:00", "meta": {"OBJECT_NAME": "FENGYUN 1C DEB", "OBJECT_ID": "1999-025HQ", "EPOCH": "2025-12-22T05:15:56.183328", "MEAN_MOTION": 14.33667965, "ECCENTRICITY": 0.00133758, "INCLINATION": 98.8546, "RA_OF_ASC_NODE": 78.8745, "ARG_OF_PERICENTER": 286.2914, "MEAN_ANOMALY": 99.8805, "EPHEMERIS_TYPE": 0, "CLASSIFICATION_TYPE": "U", "NORAD_CAT_ID": 29918, "ELEMENT_SET_NO": 999, "REV_AT_EPOCH": 97930, "BSTAR": 0.00138273, "MEAN_MOTION_DOT": 3.794e-05, "MEAN_MOTION_DDOT": 0}, "tle": {"line1": "1 29918U 99025HQ  25356.21940027  .00003794  00000+0  13827-2 0  9995", "line2": "2 29918  98.8546  78.8745 0013375 286.2914  99.8805 14.33667965979308"}}, "geometry": {"type": "Point", "coordinates": [-178.1843371256627, -80.92693767669299]}}]}